[{"OBJECT_NAME":"STARLINK-4391","OBJECT_ID":"2022-084A","EPOCH":"2026-03-09T21:21:00.708192","MEAN_MOTION":15.05645954,"ECCENTRICITY":8.158e-5,"INCLINATION":97.6028,"RA_OF_ASC_NODE":131.3697,"ARG_OF_PERICENTER":109.974,"MEAN_ANOMALY":250.1575,"EPHEMERIS_TYPE":0,"CLASSIFICATION_TYPE":"U","NORAD_CAT_ID":53189,"ELEMENT_SET_NO":999,"REV_AT_EPOCH":20008,"BSTAR":9.767621e-6,"MEAN_MOTION_DOT":8.0e-7,"MEAN_MOTION_DDOT":0},{"OBJECT_NAME":"SL-8 R\/B","OBJECT_ID":"1968-040B","EPOCH":"2026-03-09T18:37:46.369632","MEAN_MOTION":15.03260494,"ECCENTRICITY":0.00239141,"INCLINATION":74.0322,"RA_OF_ASC_NODE":313.5182,"ARG_OF_PERICENTER":137.361,"MEAN_ANOMALY":222.9441,"EPHEMERIS_TYPE":0,"CLASSIFICATION_TYPE":"U","NORAD_CAT_ID":3230,"ELEMENT_SET_NO":999,"REV_AT_EPOCH":9002,"BSTAR":0.00025747843,"MEAN_MOTION_DOT":3.469e-5,"MEAN_MOTION_DDOT":0}]
